0 THOR ABLESTAR DEB
1 03592U 65048F   13281.88228906  .00000233  00000-0  29455-3 0  8478
2 03592 089.9829 320.8562 0060848 303.8374 109.0347 13.60606627389872
0 THOR ABLESTAR DEB
1 03592U 65048F   13284.08848469  .00000268  00000-0  33931-3 0  8488
2 03592 089.9825 320.8524 0060802 297.1318 115.6002 13.60607532390171
0 THOR ABLESTAR DEB
1 03592U 65048F   13286.14968074  .00000235  00000-0  29712-3 0  8499
2 03592 089.9819 320.8488 0060802 290.8593 131.9298 13.60608275390452
0 THOR ABLESTAR DEB
1 03592U 65048F   13288.58690977  .00000275  00000-0  34857-3 0  8505
2 03592 089.9812 320.8442 0060839 283.4576 190.1727 13.60610079390789
0 THOR ABLESTAR DEB
1 03592U 65048F   13291.07458573  .00000260  00000-0  32884-3 0  8510
2 03592 089.9811 320.8394 0060907 275.9163 135.5207 13.60611719391125
0 THOR ABLESTAR DEB
1 03592U 65048F   13293.29789463  .00000274  00000-0  34791-3 0  8526
2 03592 089.9812 320.8347 0060992 269.1893 225.9209 13.60612701391424
0 THOR ABLESTAR DEB
1 03592U 65048F   13295.34145899  .00000281  00000-0  35662-3 0  8530
2 03592 089.9812 320.8306 0061085 263.0087 155.8869 13.60613756391706
